NORAD_CAT_ID,OBJECT_NAME,OBJECT_TYPE,EPOCH,MEAN_MOTION,ECCENTRICITY,INCLINATION,RA_OF_ASC_NODE,ARG_OF_PERICENTER,MEAN_ANOMALY,BSTAR,MEAN_MOTION_DOT,MEAN_MOTION_DDOT,TLE_LINE0,TLE_LINE1,TLE_LINE2,SEMIMAJOR_AXIS,PERIOD,APOGEE,PERIGEE,DECAYED
49411.0,STARLINK-3162,PAYLOAD,2023-03-05 07:59:11,15.08830497,9.64e-05,53.2147,118.8143,99.629,260.4812,0.00010747,1.423e-05,0.0,0 STARLINK-3162,1 49411U 21104D   23064.33277627  .00001423  00000-0  10747-3 0  9991,2 49411  53.2147 118.8143 0000964  99.6290 260.4812 15.08830497 72651,6917.909,95.438,540.441,539.108,0.0
49411.0,STARLINK-3162,PAYLOAD,2023-03-05 20:42:17,15.08845906,0.0001248,53.2141,116.4371,87.1477,272.9657,0.00095099,0.00014882,0.0,0 STARLINK-3162,1 49411U 21104D   23064.86269807  .00014882  00000-0  95099-3 0  9996,2 49411  53.2141 116.4371 0001248  87.1477 272.9657 15.08845906 73812,6917.862,95.437,540.591,538.864,0.0
49411.0,STARLINK-3162,PAYLOAD,2023-03-06 20:33:03,15.0885243,0.0001423,53.213,111.976,70.357,289.7575,0.00053829,8.292e-05,0.0,0 STARLINK-3162,1 49411U 21104D   23065.85629419  .00008292  00000-0  53829-3 0  9998,2 49411  53.2130 111.9760 0001423  70.3570 289.7575 15.08852430 72886,6917.842,95.437,540.692,538.723,0.0
49411.0,STARLINK-3162,PAYLOAD,2023-03-07 09:16:09,15.08836545,0.0001555,53.2138,109.5967,78.407,281.7096,7.4167e-05,8.92e-06,0.0,0 STARLINK-3162,1 49411U 21104D   23066.38622024  .00000892  00000-0  74167-4 0  9999,2 49411  53.2138 109.5967 0001555  78.4070 281.7096 15.08836545 74045,6917.891,95.438,540.832,538.68,0.0
49411.0,STARLINK-3162,PAYLOAD,2023-03-07 14:02:18,15.08850684,0.0001604,53.2148,108.6986,110.6642,249.4522,0.00058681,9.066e-05,0.0,0 STARLINK-3162,1 49411U 21104D   23066.58493621  .00009066  00000-0  58681-3 0  9994,2 49411  53.2148 108.6986 0001604 110.6642 249.4522 15.08850684 74074,6917.848,95.437,540.822,538.603,0.0
49411.0,STARLINK-3162,PAYLOAD,2023-03-07 20:23:51,15.0883163,0.0001217,53.2138,107.5149,91.6918,268.4213,0.00020668,3.002e-05,0.0,0 STARLINK-3162,1 49411U 21104D   23066.84990185  .00003002  00000-0  20668-3 0  9998,2 49411  53.2138 107.5149 0001217  91.6918 268.4213 15.08831630 73039,6917.906,95.438,540.613,538.929,0.0
49411.0,STARLINK-3162,PAYLOAD,2023-03-08 10:42:19,15.08851579,0.0001595,53.2141,104.8355,102.2041,257.913,0.00073232,0.0001139,0.0,0 STARLINK-3162,1 49411U 21104D   23067.44606159  .00011390  00000-0  73232-3 0  9994,2 49411  53.2141 104.8355 0001595 102.2041 257.9130 15.08851579 74202,6917.845,95.437,540.813,538.607,0.0
49411.0,STARLINK-3162,PAYLOAD,2023-03-09 05:46:57,15.08847532,0.0002024,53.2148,101.2641,112.2288,247.8919,0.00046229,7.078e-05,0.0,0 STARLINK-3162,1 49411U 21104D   23068.24094210  .00007078  00000-0  46229-3 0  9996,2 49411  53.2148 101.2641 0002024 112.2288 247.8919 15.08847532 74320,6917.857,95.437,541.123,538.322,0.0
49411.0,STARLINK-3162,PAYLOAD,2023-03-09 18:30:02,15.08851316,0.0001554,53.2143,98.8834,76.491,283.6255,0.00043222,6.6e-05,0.0,0 STARLINK-3162,1 49411U 21104D   23068.77086061  .00006600  00000-0  43222-3 0  9999,2 49411  53.2143  98.8834 0001554  76.4910 283.6255 15.08851316 74405,6917.846,95.437,540.786,538.636,0.0
49411.0,STARLINK-3162,PAYLOAD,2023-03-10 05:37:44,15.0884493,0.0001452,53.2148,96.8051,93.2274,266.8884,0.00014691,2.051e-05,0.0,0 STARLINK-3162,1 49411U 21104D   23069.23453959  .00002051  00000-0  14691-3 0  9999,2 49411  53.2148  96.8051 0001452  93.2274 266.8884 15.08844930 74478,6917.865,95.437,540.735,538.726,0.0
49411.0,STARLINK-3162,PAYLOAD,2023-03-10 08:48:30,15.08861267,0.0001371,53.2145,96.2098,89.0995,271.0155,0.00052459,8.076e-05,0.0,0 STARLINK-3162,1 49411U 21104D   23069.36701412  .00008076  00000-0  52459-3 0  9990,2 49411  53.2145  96.2098 0001371  89.0995 271.0155 15.08861267 74496,6917.815,95.436,540.629,538.732,0.0
49411.0,STARLINK-3162,PAYLOAD,2023-03-10 18:20:49,15.0883248,0.000146,53.2149,94.4258,101.6432,258.4724,-0.00015436,-2.743e-05,0.0,0 STARLINK-3162,1 49411U 21104D   23069.76446185 -.00002743  00000-0 -15436-3 0  9998,2 49411  53.2149  94.4258 0001460 101.6432 258.4724 15.08832480 74557,6917.903,95.438,540.778,538.758,0.0
49411.0,STARLINK-3162,PAYLOAD,2023-03-11 11:50:04,15.08836869,0.0001362,53.2149,91.1576,110.851,249.2628,0.00034898,5.27e-05,0.0,0 STARLINK-3162,1 49411U 21104D   23070.49310399  .00005270  00000-0  34898-3 0  9996,2 49411  53.2149  91.1576 0001362 110.8510 249.2628 15.08836869 73582,6917.89,95.438,540.697,538.813,0.0
49411.0,STARLINK-3162,PAYLOAD,2023-03-11 13:25:27,15.08841915,0.0001428,53.2148,90.8603,112.905,247.2092,0.00045044,6.888e-05,0.0,0 STARLINK-3162,1 49411U 21104D   23070.55934386  .00006888  00000-0  45044-3 0  9992,2 49411  53.2148  90.8603 0001428 112.9050 247.2092 15.08841915 74675,6917.875,95.437,540.727,538.752,0.0
49411.0,STARLINK-3162,PAYLOAD,2023-03-12 05:19:19,15.08830592,0.0001532,53.2148,87.8863,103.2012,256.9152,0.00023004,3.374e-05,0.0,0 STARLINK-3162,1 49411U 21104D   23071.22175215  .00003374  00000-0  23004-3 0  9994,2 49411  53.2148  87.8863 0001532 103.2012 256.9152 15.08830592 74770,6917.909,95.438,540.834,538.714,0.0
49411.0,STARLINK-3162,PAYLOAD,2023-03-12 08:30:05,15.08840342,0.0001382,53.2145,87.2907,108.6639,251.4503,0.00030952,4.642e-05,0.0,0 STARLINK-3162,1 49411U 21104D   23071.35422908  .00004642  00000-0  30952-3 0  9991,2 49411  53.2145  87.2907 0001382 108.6639 251.4503 15.08840342 74793,6917.879,95.438,540.7,538.788,0.0
49411.0,STARLINK-3162,PAYLOAD,2023-03-13 09:56:15,15.08850048,0.0001473,53.2144,82.533,109.3746,250.7405,0.00042074,6.416e-05,0.0,0 STARLINK-3162,1 49411U 21104D   23072.41406766  .00006416  00000-0  42074-3 0  9992,2 49411  53.2144  82.5330 0001473 109.3746 250.7405 15.08850048 74953,6917.85,95.437,540.734,538.696,0.0
49411.0,STARLINK-3162,PAYLOAD,2023-03-13 13:07:01,15.08854185,0.0001491,53.2142,81.9374,118.6785,241.4357,0.00049045,7.529e-05,0.0,0 STARLINK-3162,1 49411U 21104D   23072.54654545  .00007529  00000-0  49045-3 0  9997,2 49411  53.2142  81.9374 0001491 118.6785 241.4357 15.08854185 73899,6917.837,95.437,540.733,538.671,0.0
49411.0,STARLINK-3162,PAYLOAD,2023-03-14 05:00:53,15.08839911,0.0001512,53.2146,78.9628,118.5445,241.5699,0.00019706,2.85e-05,0.0,0 STARLINK-3162,1 49411U 21104D   23073.20895048  .00002850  00000-0  19706-3 0  9999,2 49411  53.2146  78.9628 0001512 118.5445 241.5699 15.08839911 75079,6917.881,95.438,540.792,538.7,0.0
49411.0,STARLINK-3162,PAYLOAD,2023-03-14 09:47:02,15.08843874,0.0001599,53.2142,78.0705,121.8743,238.2405,0.0003174,4.768e-05,0.0,0 STARLINK-3162,1 49411U 21104D   23073.40767036  .00004768  00000-0  31740-3 0  9998,2 49411  53.2142  78.0705 0001599 121.8743 238.2405 15.08843874 74020,6917.869,95.437,540.84,538.627,0.0
49411.0,STARLINK-3162,PAYLOAD,2023-03-14 17:43:58,15.08847403,0.0001668,53.216,76.581,116.0301,244.0863,0.00043297,6.611e-05,0.0,0 STARLINK-3162,1 49411U 21104D   23073.73887078  .00006611  00000-0  43297-3 0  9992,2 49411  53.2160  76.5810 0001668 116.0301 244.0863 15.08847403 74073,6917.858,95.437,540.877,538.569,0.0
49411.0,STARLINK-3162,PAYLOAD,2023-03-15 04:51:39,15.08867508,0.0001441,53.2151,74.5007,110.6386,249.4761,0.001117,0.00017547,0.0,0 STARLINK-3162,1 49411U 21104D   23074.20254494  .00017547  00000-0  11170-2 0  9999,2 49411  53.2151  74.5007 0001441 110.6386 249.4761 15.08867508 75223,6917.796,95.436,540.658,538.664,0.0
49411.0,STARLINK-3162,PAYLOAD,2023-03-15 11:13:11,15.08888528,0.0001457,53.2152,73.313,102.4733,257.6422,0.0015745,0.00024892,0.0,0 STARLINK-3162,1 49411U 21104D   23074.46749743  .00024892  00000-0  15745-2 0  9996,2 49411  53.2152  73.3130 0001457 102.4733 257.6422 15.08888528 74184,6917.732,95.434,540.605,538.589,0.0
49411.0,STARLINK-3162,PAYLOAD,2023-03-16 04:42:26,15.08845236,0.0001488,53.2155,70.042,124.5727,235.5406,0.00097416,0.00015252,0.0,0 STARLINK-3162,1 49411U 21104D   23075.19614179  .00015252  00000-0  97416-3 0  9997,2 49411  53.2155  70.0420 0001488 124.5727 235.5406 15.08845236 75373,6917.864,95.437,540.759,538.7,0.0
49411.0,STARLINK-3162,PAYLOAD,2023-03-16 11:03:59,15.08852679,9.8e-05,53.2154,68.8528,92.5221,267.5883,0.0013164,0.00020732,0.0,0 STARLINK-3162,1 49411U 21104D   23075.46110090  .00020732  00000-0  13164-2 0  9996,2 49411  53.2154  68.8528 0000980  92.5221 267.5883 15.08852679 74333,6917.842,95.437,540.385,539.029,0.0
49411.0,STARLINK-3162,PAYLOAD,2023-03-17 02:57:51,15.08833932,9.79e-05,53.2157,65.8804,102.0783,258.0318,0.0009264,0.00014484,0.0,0 STARLINK-3162,1 49411U 21104D   23076.12350933  .00014484  00000-0  92640-3 0  9996,2 49411  53.2157  65.8804 0000979 102.0783 258.0318 15.08833932 75518,6917.899,95.438,540.441,539.087,0.0
49411.0,STARLINK-3162,PAYLOAD,2023-03-17 10:54:47,15.08841767,9.32e-05,53.2159,64.3941,76.2733,283.8363,0.0012304,0.00019349,0.0,0 STARLINK-3162,1 49411U 21104D   23076.45471097  .00019349  00000-0  12304-2 0  9990,2 49411  53.2159  64.3941 0000932  76.2733 283.8363 15.08841767 74488,6917.875,95.437,540.385,539.095,0.0
49411.0,STARLINK-3162,PAYLOAD,2023-03-17 15:40:56,15.08832959,0.0001099,53.2156,63.5015,77.8052,282.3063,0.00079166,0.00012331,0.0,0 STARLINK-3162,1 49411U 21104D   23076.65343436  .00012331  00000-0  79166-3 0  9991,2 49411  53.2156  63.5015 0001099  77.8052 282.3063 15.08832959 75591,6917.902,95.438,540.527,539.007,0.0
49411.0,STARLINK-3162,PAYLOAD,2023-03-17 22:02:29,15.08842131,6.06e-05,53.2157,62.3123,92.216,267.8901,0.00083821,0.00013078,0.0,0 STARLINK-3162,1 49411U 21104D   23076.91839226  .00013078  00000-0  83821-3 0  9999,2 49411  53.2157  62.3123 0000606  92.2160 267.8901 15.08842131 74550,6917.874,95.437,540.158,539.32,0.0
49411.0,STARLINK-3162,PAYLOAD,2023-03-18 10:45:33,15.08865543,8.95e-05,53.2157,59.9327,81.2335,278.8758,0.0013947,0.00021994,0.0,0 STARLINK-3162,1 49411U 21104D   23077.44830767  .00021994  00000-0  13947-2 0  9996,2 49411  53.2157  59.9327 0000895  81.2335 278.8758 15.08865543 75713,6917.802,95.436,540.286,539.048,0.0
